start=new Date('2022-03-16T00:00:00.000Z').valueOf();
sats=[{"MEAN_ELEMENT_THEORY":"SGP4","PERIAPSIS":"347.741","EPOCH":"2022-03-15T22:00:00.999936","COUNTRY_CODE":"US","MEAN_MOTION_DDOT":"0.0000000000000","REV_AT_EPOCH":"368","NORAD_CAT_ID":"51116","MEAN_MOTION":"15.73202581","GP_ID":"198850804","REF_FRAME":"TEME","ECCENTRICITY":"0.00029910","RCS_SIZE":"LARGE","LAUNCH_DATE":"2022-01-19","BSTAR":"-0.00046655000000","CLASSIFICATION_TYPE":"U","INCLINATION":"53.2170","TIME_SYSTEM":"UTC","OBJECT_TYPE":"PAYLOAD","MEAN_MOTION_DOT":"-0.00065616","APOAPSIS":"351.765","CENTER_NAME":"EARTH","OBJECT_ID":"2022-005N","TLE_LINE1":"1 51116U 22005N   22074.91667824 -.00065616  00000-0 -46655-3 0  9996","ELEMENT_SET_NO":"999","FILE":"3360930","OBJECT_NAME":"STARLINK-3243","EPHEMERIS_TYPE":"0","SITE":"AFETR","TLE_LINE2":"2 51116  53.2170 358.0007 0002991  18.9091 291.3679 15.73202581  3684","PERIOD":"91.533","ARG_OF_PERICENTER":"18.9091","RA_OF_ASC_NODE":"358.0007","MEAN_ANOMALY":"291.3679","SEMIMAJOR_AXIS":"6727.888","DECAY_DATE":null},{"CLASSIFICATION_TYPE":"U","INCLINATION":"53.2172","TIME_SYSTEM":"UTC","OBJECT_TYPE":"PAYLOAD","COUNTRY_CODE":"US","MEAN_MOTION_DDOT":"0.0000000000000","MEAN_ELEMENT_THEORY":"SGP4","PERIAPSIS":"347.600","EPOCH":"2022-03-15T22:00:00.999936","MEAN_MOTION":"15.73179707","GP_ID":"198850185","REF_FRAME":"TEME","RCS_SIZE":"LARGE","ECCENTRICITY":"0.00032960","LAUNCH_DATE":"2022-01-19","BSTAR":"-0.00015744000000","REV_AT_EPOCH":"368","NORAD_CAT_ID":"51117","RA_OF_ASC_NODE":"357.9881","MEAN_ANOMALY":"299.3444","ARG_OF_PERICENTER":"16.0102","DECAY_DATE":null,"SEMIMAJOR_AXIS":"6727.953","CENTER_NAME":"EARTH","OBJECT_ID":"2022-005P","MEAN_MOTION_DOT":"-0.00022647","APOAPSIS":"352.036","ELEMENT_SET_NO":"999","OBJECT_NAME":"STARLINK-3391","FILE":"3360930","EPHEMERIS_TYPE":"0","SITE":"AFETR","TLE_LINE2":"2 51117  53.2172 357.9881 0003296  16.0102 299.3444 15.73179707  3687","PERIOD":"91.534","TLE_LINE1":"1 51117U 22005P   22074.91667824 -.00022647  00000-0 -15744-3 0  9999"},{"TLE_LINE1":"1 51118U 22005Q   22074.91667824  .00022050  00000-0  16127-3 0  9992","PERIOD":"91.535","TLE_LINE2":"2 51118  53.2163 357.9939 0003423   8.4060 303.7505 15.73174044  3689","SITE":"AFETR","FILE":"3360930","OBJECT_NAME":"STARLINK-3394","EPHEMERIS_TYPE":"0","ELEMENT_SET_NO":"999","APOAPSIS":"352.137","MEAN_MOTION_DOT":"0.00022050","OBJECT_ID":"2022-005Q","CENTER_NAME":"EARTH","SEMIMAJOR_AXIS":"6727.969","DECAY_DATE":null,"ARG_OF_PERICENTER":"8.4060","MEAN_ANOMALY":"303.7505","RA_OF_ASC_NODE":"357.9939","NORAD_CAT_ID":"51118","REV_AT_EPOCH":"368","BSTAR":"0.00016127000000","LAUNCH_DATE":"2022-01-19","RCS_SIZE":"LARGE","ECCENTRICITY":"0.00034230","GP_ID":"198850391","MEAN_MOTION":"15.73174044","REF_FRAME":"TEME","EPOCH":"2022-03-15T22:00:00.999936","PERIAPSIS":"347.531","MEAN_ELEMENT_THEORY":"SGP4","MEAN_MOTION_DDOT":"0.0000000000000","COUNTRY_CODE":"US","OBJECT_TYPE":"PAYLOAD","TIME_SYSTEM":"UTC","INCLINATION":"53.2163","CLASSIFICATION_TYPE":"U"},{"DECAY_DATE":null,"SEMIMAJOR_AXIS":"6727.941","MEAN_ANOMALY":"297.5143","RA_OF_ASC_NODE":"357.9876","ARG_OF_PERICENTER":"18.4983","TLE_LINE2":"2 51119  53.2163 357.9876 0002881  18.4983 297.5143 15.73183922 10111","PERIOD":"91.534","SITE":"AFETR","OBJECT_NAME":"STARLINK-3390","FILE":"3360909","EPHEMERIS_TYPE":"0","ELEMENT_SET_NO":"999","TLE_LINE1":"1 51119U 22005R   22074.91667824 -.00050124  00000-0 -35499-3 0  9991","OBJECT_ID":"2022-005R","CENTER_NAME":"EARTH","APOAPSIS":"351.744","MEAN_MOTION_DOT":"-0.00050124","OBJECT_TYPE":"PAYLOAD","TIME_SYSTEM":"UTC","INCLINATION":"53.2163","CLASSIFICATION_TYPE":"U","BSTAR":"-0.00035499000000","LAUNCH_DATE":"2022-01-19","ECCENTRICITY":"0.00028810","RCS_SIZE":"LARGE","GP_ID":"198825476","MEAN_MOTION":"15.73183922","REF_FRAME":"TEME","NORAD_CAT_ID":"51119","REV_AT_EPOCH":"1011","MEAN_MOTION_DDOT":"0.0000000000000","COUNTRY_CODE":"US","EPOCH":"2022-03-15T22:00:00.999936","MEAN_ELEMENT_THEORY":"SGP4","PERIAPSIS":"347.868"},{"CENTER_NAME":"EARTH","OBJECT_ID":"2022-005S","MEAN_MOTION_DOT":"-0.00028519","APOAPSIS":"351.899","ELEMENT_SET_NO":"999","FILE":"3360930","OBJECT_NAME":"STARLINK-3398","EPHEMERIS_TYPE":"0","SITE":"AFETR","PERIOD":"91.535","TLE_LINE2":"2 51120  53.2174 357.9845 0003058  17.7271 299.5333 15.73171610  3688","TLE_LINE1":"1 51120U 22005S   22074.91667824 -.00028519  00000-0 -19964-3 0  9995","RA_OF_ASC_NODE":"357.9845","MEAN_ANOMALY":"299.5333","ARG_OF_PERICENTER":"17.7271","DECAY_DATE":null,"SEMIMAJOR_AXIS":"6727.976","COUNTRY_CODE":"US","MEAN_MOTION_DDOT":"0.0000000000000","MEAN_ELEMENT_THEORY":"SGP4","PERIAPSIS":"347.784","EPOCH":"2022-03-15T22:00:00.999936","GP_ID":"198850905","MEAN_MOTION":"15.73171610","REF_FRAME":"TEME","ECCENTRICITY":"0.00030580","RCS_SIZE":"LARGE","LAUNCH_DATE":"2022-01-19","BSTAR":"-0.00019964000000","REV_AT_EPOCH":"368","NORAD_CAT_ID":"51120","CLASSIFICATION_TYPE":"U","INCLINATION":"53.2174","TIME_SYSTEM":"UTC","OBJECT_TYPE":"PAYLOAD"},{"PERIOD":"91.541","TLE_LINE2":"2 51121  53.2173 357.9891 0003416   8.9330 305.9180 15.73066663  3688","SITE":"AFETR","EPHEMERIS_TYPE":"0","FILE":"3360930","OBJECT_NAME":"STARLINK-3399","ELEMENT_SET_NO":"999","TLE_LINE1":"1 51121U 22005T   22074.91667824  .00023776  00000-0  17430-3 0  9990","OBJECT_ID":"2022-005T","CENTER_NAME":"EARTH","APOAPSIS":"352.439","MEAN_MOTION_DOT":"0.00023776","DECAY_DATE":null,"SEMIMAJOR_AXIS":"6728.275","MEAN_ANOMALY":"305.9180","RA_OF_ASC_NODE":"357.9891","ARG_OF_PERICENTER":"8.9330","BSTAR":"0.00017430000000","LAUNCH_DATE":"2022-01-19","RCS_SIZE":"LARGE","ECCENTRICITY":"0.00034160","MEAN_MOTION":"15.73066663","GP_ID":"198850499","REF_FRAME":"TEME","NORAD_CAT_ID":"51121","REV_AT_EPOCH":"368","MEAN_MOTION_DDOT":"0.0000000000000","COUNTRY_CODE":"US","EPOCH":"2022-03-15T22:00:00.999936","PERIAPSIS":"347.842","MEAN_ELEMENT_THEORY":"SGP4","OBJECT_TYPE":"PAYLOAD","TIME_SYSTEM":"UTC","INCLINATION":"53.2173","CLASSIFICATION_TYPE":"U"},{"MEAN_ELEMENT_THEORY":"SGP4","PERIAPSIS":"348.368","EPOCH":"2022-03-15T22:00:00.999936","COUNTRY_CODE":"US","MEAN_MOTION_DDOT":"0.0000000000000","REV_AT_EPOCH":"368","NORAD_CAT_ID":"51122","GP_ID":"198850704","MEAN_MOTION":"15.72989892","REF_FRAME":"TEME","ECCENTRICITY":"0.00029600","RCS_SIZE":"LARGE","LAUNCH_DATE":"2022-01-19","BSTAR":"0.00117230000000","CLASSIFICATION_TYPE":"U","INCLINATION":"53.2171","TIME_SYSTEM":"UTC","OBJECT_TYPE":"PAYLOAD","MEAN_MOTION_DOT":"0.00165709","APOAPSIS":"352.351","CENTER_NAME":"EARTH","OBJECT_ID":"2022-005U","TLE_LINE1":"1 51122U 22005U   22074.91667824  .00165709  00000-0  11723-2 0  9992","ELEMENT_SET_NO":"999","OBJECT_NAME":"STARLINK-3373","FILE":"3360930","EPHEMERIS_TYPE":"0","SITE":"AFETR","TLE_LINE2":"2 51122  53.2171 357.9855 0002960  15.5713 301.1850 15.72989892  3688","PERIOD":"91.545","ARG_OF_PERICENTER":"15.5713","RA_OF_ASC_NODE":"357.9855","MEAN_ANOMALY":"301.1850","SEMIMAJOR_AXIS":"6728.494","DECAY_DATE":null},{"SEMIMAJOR_AXIS":"6728.281","DECAY_DATE":null,"ARG_OF_PERICENTER":"12.9171","MEAN_ANOMALY":"305.0061","RA_OF_ASC_NODE":"357.9827","TLE_LINE1":"1 51123U 22005V   22074.91667824  .00036673  00000-0  26606-3 0  9997","SITE":"AFETR","TLE_LINE2":"2 51123  53.2174 357.9827 0003207  12.9171 305.0061 15.73064847  3687","PERIOD":"91.541","ELEMENT_SET_NO":"999","FILE":"3360930","OBJECT_NAME":"STARLINK-3392","EPHEMERIS_TYPE":"0","APOAPSIS":"352.303","MEAN_MOTION_DOT":"0.00036673","OBJECT_ID":"2022-005V","CENTER_NAME":"EARTH","TIME_SYSTEM":"UTC","OBJECT_TYPE":"PAYLOAD","INCLINATION":"53.2174","CLASSIFICATION_TYPE":"U","NORAD_CAT_ID":"51123","REV_AT_EPOCH":"368","LAUNCH_DATE":"2022-01-19","BSTAR":"0.00026606000000","MEAN_MOTION":"15.73064847","GP_ID":"198850601","REF_FRAME":"TEME","RCS_SIZE":"LARGE","ECCENTRICITY":"0.00032070","PERIAPSIS":"347.988","MEAN_ELEMENT_THEORY":"SGP4","EPOCH":"2022-03-15T22:00:00.999936","MEAN_MOTION_DDOT":"0.0000000000000","COUNTRY_CODE":"US"},{"SEMIMAJOR_AXIS":"6755.436","DECAY_DATE":null,"ARG_OF_PERICENTER":"58.5657","RA_OF_ASC_NODE":"358.2229","MEAN_ANOMALY":"150.7816","TLE_LINE1":"1 51124U 22005W   22074.91667824 -.00714849  00000-0 -82374-2 0  9991","OBJECT_NAME":"STARLINK-3389","FILE":"3360930","EPHEMERIS_TYPE":"0","ELEMENT_SET_NO":"999","TLE_LINE2":"2 51124  53.2176 358.2229 0001386  58.5657 150.7816 15.63589165  3688","PERIOD":"92.096","SITE":"AFETR","MEAN_MOTION_DOT":"-0.00714849","APOAPSIS":"378.238","CENTER_NAME":"EARTH","OBJECT_ID":"2022-005W","INCLINATION":"53.2176","OBJECT_TYPE":"PAYLOAD","TIME_SYSTEM":"UTC","CLASSIFICATION_TYPE":"U","REV_AT_EPOCH":"368","NORAD_CAT_ID":"51124","RCS_SIZE":"LARGE","ECCENTRICITY":"0.00013860","GP_ID":"198850805","MEAN_MOTION":"15.63589165","REF_FRAME":"TEME","BSTAR":"-0.00823740000000","LAUNCH_DATE":"2022-01-19","EPOCH":"2022-03-15T22:00:00.999936","PERIAPSIS":"376.365","MEAN_ELEMENT_THEORY":"SGP4","COUNTRY_CODE":"US","MEAN_MOTION_DDOT":"0.0000000000000"},{"DECAY_DATE":null,"SEMIMAJOR_AXIS":"6761.183","RA_OF_ASC_NODE":"358.2158","MEAN_ANOMALY":"123.4609","ARG_OF_PERICENTER":"37.9896","FILE":"3360930","EPHEMERIS_TYPE":"0","OBJECT_NAME":"STARLINK-3387","ELEMENT_SET_NO":"999","TLE_LINE2":"2 51125  53.2175 358.2158 0001708  37.9896 123.4609 15.61596191  3685","PERIOD":"92.213","SITE":"AFETR","TLE_LINE1":"1 51125U 22005X   22074.91667824 -.00714502  00000-0 -89033-2 0  9997","CENTER_NAME":"EARTH","OBJECT_ID":"2022-005X","MEAN_MOTION_DOT":"-0.00714502","APOAPSIS":"384.203","INCLINATION":"53.2175","OBJECT_TYPE":"PAYLOAD","TIME_SYSTEM":"UTC","CLASSIFICATION_TYPE":"U","RCS_SIZE":"LARGE","ECCENTRICITY":"0.00017080","GP_ID":"198850186","MEAN_MOTION":"15.61596191","REF_FRAME":"TEME","BSTAR":"-0.00890330000000","LAUNCH_DATE":"2022-01-19","REV_AT_EPOCH":"368","NORAD_CAT_ID":"51125","COUNTRY_CODE":"US","MEAN_MOTION_DDOT":"0.0000000000000","EPOCH":"2022-03-15T22:00:00.999936","MEAN_ELEMENT_THEORY":"SGP4","PERIAPSIS":"381.893"}];
